OCEANSAT-2              
1 35931U 09051A   26192.50480873 -.00000140  00000+0 -70227-4 0  9999
2 35931  98.2318 176.9285 0017105 164.1699 196.0006 13.99656597882732
WORLDVIEW-2 (WV-2)      
1 35946U 09055A   26192.51886256  .00000044  00000+0  29063-4 0  9998
2 35946  98.4758 265.6371 0005160 138.7266 221.4312 14.37906345879141
SMOS                    
1 36036U 09059A   26192.51304272  .00000163  00000+0  65861-4 0  9994
2 36036  98.4426  19.4914 0001127  95.3171 264.8146 14.39734682876951
YAOGAN-7                
1 36110U 09069A   26189.61704388  .00000339  00000+0  54067-4 0  9998
2 36110  98.0044  75.3492 0023935 333.3807  26.6172 14.78031471892792
TANDEM-X                
1 36605U 10030A   26188.47915494  .00000386  00000+0  21566-4 0  9992
2 36605  97.4457 195.8973 0001887  94.3019 265.8431 15.19154052889726
CARTOSAT-2B             
1 36795U 10035A   26192.49815499  .00000711  00000+0  10411-3 0  9996
2 36795  97.9946 242.8907 0012512 109.8331 250.4230 14.78615367863443
YAOGAN-10               
1 36834U 10038A   26192.54629156  .00000690  00000+0  86348-4 0  9991
2 36834  97.8977 215.7562 0001661  81.2790  41.4423 14.85421636860824
COSMO-SKYMED 4          
1 37216U 10060A   26192.47748193  .00000624  00000+0  84970-4 0  9992
2 37216  97.8896  15.7261 0001513  86.1257 274.0129 14.82148387848167
RESOURCESAT-2           
1 37387U 11015A   26192.44147084  .00000010  00000+0  24568-4 0  9997
2 37387  98.7633 259.7144 0011373 181.6176 178.4966 14.21605339789620
HAIYANG-2A              
1 37781U 11043A   26192.50564199 -.00000022  00000+0  22625-4 0  9999
2 37781  99.3402 194.6275 0002908  39.7391 320.3971 13.73481197749997
RASAT                   
1 37791U 11044D   26192.51948559  .00000382  00000+0  74574-4 0  9996
2 37791  98.0577 283.5455 0021826 113.5852   9.1012 14.68190983796757
SRMSAT                  
1 37841U 11058D   26192.32393388  .00000351  00000+0  46525-4 0  9991
2 37841  19.9716 273.3792 0011857 108.9537 302.7584 14.11580564761239
PLEIADES 1A             
1 38012U 11076F   26192.49164544  .00000426  00000+0  10153-3 0  9990
2 38012  98.1971 267.2671 0001735  81.2467  44.6536 14.58546631775534
ZIYUAN 1-02C (ZY 1-02C) 
1 38038U 11079A   26192.50680762  .00000413  00000+0  14993-3 0  9990
2 38038  98.4064 259.3063 0005378 227.5387 256.5727 14.38234430762708
ARIRANG-3 (KOMPSAT-3)   
1 38338U 12025B   26192.53067731  .00000209  00000+0  50672-4 0  9991
2 38338  98.1183 149.5725 0006426  48.4569 311.7182 14.62227165754908
EXACTVIEW-1 (ADS-1B)    
1 38709U 12039C   26192.32472867  .00000045  00000+0  38955-4 0  9993
2 38709  98.9800 310.2630 0011945 101.6344 258.6175 14.24991572726145
SPOT 6                  
1 38755U 12047A   26192.48303251  .00000288  00000+0  71824-4 0  9991
2 38755  98.2112 259.5064 0001154  82.2081 277.9249 14.58538139736593
PLEIADES 1B             
1 39019U 12068A   26192.50161612  .00000259  00000+0  65556-4 0  9997
2 39019  98.1942 267.2178 0001628  79.6122 280.5261 14.58533565724398
GOKTURK 2               
1 39030U 12073A   26192.56109707 -.00000142  00000+0 -13910-4 0  9999
2 39030  97.6819  28.7702 0000896  84.5116 275.6196 14.75564702728106
LANDSAT 8               
1 39084U 13008A   26192.47123663  .00000162  00000+0  46029-4 0  9991
2 39084  98.2292 262.3169 0001339  94.0791 266.0560 14.57110332701430
SARAL                   
1 39086U 13009A   26192.48139625  .00000053  00000+0  35570-4 0  9998
2 39086  98.5554  18.7414 0001474 176.3848 183.7347 14.32895185699083
GAOFEN-1                
1 39150U 13018A   26192.52713796  .00000420  00000+0  67374-4 0  9997
2 39150  97.9089 264.0994 0016744 182.9027 177.2089 14.76517049711835
VNREDSAT 1              
1 39160U 13021B   26192.47443301  .00000665  00000+0  13291-3 0  9997
2 39160  97.9073 244.9572 0001642  80.4743 279.6646 14.64882838703842
ARIRANG-5 (KOMPSAT-5)   
1 39227U 13042A   26192.50807479  .00000671  00000+0  52220-4 0  9991
2 39227  97.6218  18.8673 0005566  67.9924 292.1893 15.04521356707516
SKYSAT-A                
1 39418U 13066C   26192.06564227  .00001644  00000+0  96068-4 0  9990
2 39418  97.3805 240.7017 0020122 228.3568 131.5941 15.13102101692096
DUBAISAT-2              
1 39419U 13066D   26192.51893309  .00002330  00000+0  14569-3 0  9995
2 39419  97.4572 182.0290 0009772 316.8590  43.1873 15.10358275690065
GPM-CORE                
1 39574U 14009C   26192.48602007  .00003551  00000+0  80211-4 0  9998
2 39574  64.9698 226.7178 0011030 260.8375  99.1518 15.45015581701568
SENTINEL-1A             
1 39634U 14016A   26192.50461863  .00000208  00000+0  53758-4 0  9991
2 39634  98.1786 199.6823 0001447  85.3804 274.7561 14.59200564653561
KAZEOSAT 1              
1 39731U 14024A   26192.51466296  .00000337  00000+0  11581-3 0  9994
2 39731  98.3200 264.3558 0001270  81.5069 278.6264 14.42037371642064
ALOS-2                  
1 39766U 14029A   26192.08119866  .00000414  00000+0  62362-4 0  9997
2 39766  97.9222 288.9034 0001625  93.1254 267.0143 14.79474805655116
KAZEOSAT 2              
1 40010U 14033A   26192.54689444 -.00000129  00000+0 -91511-5 0  9995
2 40010  97.5405  30.8711 0007188 233.6993 126.3560 14.85496137652572
