OBJECT_NAME,OBJECT_ID,EPOCH,MEAN_MOTION,ECCENTRICITY,INCLINATION,RA_OF_ASC_NODE,ARG_OF_PERICENTER,MEAN_ANOMALY,EPHEMERIS_TYPE,CLASSIFICATION_TYPE,NORAD_CAT_ID,ELEMENT_SET_NO,REV_AT_EPOCH,BSTAR,MEAN_MOTION_DOT,MEAN_MOTION_DDOT
OCEANSAT-2,2009-051A,2026-07-11T12:06:55.474272,13.99656597,.0017105,98.2318,176.9285,164.1699,196.0006,0,U,35931,999,88273,-.70227E-4,-.14E-5,0
WORLDVIEW-2 (WV-2),2009-055A,2026-07-11T12:27:09.725184,14.37906345,.000516,98.4758,265.6371,138.7266,221.4312,0,U,35946,999,87914,.29063E-4,.44E-6,0
SMOS,2009-059A,2026-07-11T12:18:46.891008,14.39734682,.0001127,98.4426,19.4914,95.3171,264.8146,0,U,36036,999,87695,.65861E-4,.163E-5,0
YAOGAN-7,2009-069A,2026-07-08T14:48:32.591232,14.78031471,.00239353,98.0044,75.3492,333.3807,26.6172,0,U,36110,999,89279,.54067378E-4,.339E-5,0
TANDEM-X,2010-030A,2026-07-07T11:29:58.986816,15.19154052,.0001887,97.4457,195.8973,94.3019,265.8431,0,U,36605,999,88972,.21566E-4,.386E-5,0
CARTOSAT-2B,2010-035A,2026-07-11T11:57:20.591136,14.78615367,.0012512,97.9946,242.8907,109.8331,250.4230,0,U,36795,999,86344,.10411E-3,.711E-5,0
YAOGAN-10,2010-038A,2026-07-11T13:06:39.590784,14.85421636,.0001661,97.8977,215.7562,81.2790,41.4423,0,U,36834,999,86082,.86348E-4,.69E-5,0
COSMO-SKYMED 4,2010-060A,2026-07-11T11:27:34.438752,14.82148387,.0001513,97.8896,15.7261,86.1257,274.0129,0,U,37216,999,84816,.8497E-4,.624E-5,0
RESOURCESAT-2,2011-015A,2026-07-11T10:35:43.080576,14.21605339,.0011373,98.7633,259.7144,181.6176,178.4966,0,U,37387,999,78962,.24568E-4,.1E-6,0
HAIYANG-2A,2011-043A,2026-07-11T12:08:07.467936,13.73481197,.0002908,99.3402,194.6275,39.7391,320.3971,0,U,37781,999,74999,.22625E-4,-.22E-6,0
RASAT,2011-044D,2026-07-11T12:28:03.554976,14.68190983,.0021826,98.0577,283.5455,113.5852,9.1012,0,U,37791,999,79675,.74574E-4,.382E-5,0
SRMSAT,2011-058D,2026-07-11T07:46:27.887232,14.11580564,.0011857,19.9716,273.3792,108.9537,302.7584,0,U,37841,999,76123,.46525E-4,.351E-5,0
PLEIADES 1A,2011-076F,2026-07-11T11:47:58.166016,14.58546631,.0001735,98.1971,267.2671,81.2467,44.6536,0,U,38012,999,77553,.10153E-3,.426E-5,0
ZIYUAN 1-02C (ZY 1-02C),2011-079A,2026-07-11T12:09:48.178368,14.38234430,.0005378,98.4064,259.3063,227.5387,256.5727,0,U,38038,999,76270,.14993E-3,.413E-5,0
ARIRANG-3 (KOMPSAT-3),2012-025B,2026-07-11T12:44:10.519584,14.62227165,.0006426,98.1183,149.5725,48.4569,311.7182,0,U,38338,999,75490,.50672E-4,.209E-5,0
EXACTVIEW-1 (ADS-1B),2012-039C,2026-07-11T07:47:36.557088,14.24991572,.0011945,98.9800,310.2630,101.6344,258.6175,0,U,38709,999,72614,.38955E-4,.45E-6,0
SPOT 6,2012-047A,2026-07-11T11:35:34.008864,14.58538139,.0001154,98.2112,259.5064,82.2081,277.9249,0,U,38755,999,73659,.71824E-4,.288E-5,0
PLEIADES 1B,2012-068A,2026-07-11T12:02:19.632768,14.58533565,.0001628,98.1942,267.2178,79.6122,280.5261,0,U,39019,999,72439,.65556E-4,.259E-5,0
GOKTURK 2,2012-073A,2026-07-11T13:27:58.786848,14.75564702,.0000896,97.6819,28.7702,84.5116,275.6196,0,U,39030,999,72810,-.1391E-4,-.142E-5,0
LANDSAT 8,2013-008A,2026-07-11T11:18:34.844832,14.57110332,.0001339,98.2292,262.3169,94.0791,266.0560,0,U,39084,999,70143,.46029E-4,.162E-5,0
SARAL,2013-009A,2026-07-11T11:33:12.636000,14.32895185,.0001474,98.5554,18.7414,176.3848,183.7347,0,U,39086,999,69908,.3557E-4,.53E-6,0
GAOFEN-1,2013-018A,2026-07-11T12:39:04.719744,14.76517049,.0016744,97.9089,264.0994,182.9027,177.2089,0,U,39150,999,71183,.67374E-4,.42E-5,0
VNREDSAT 1,2013-021B,2026-07-11T11:23:11.012064,14.64882838,.0001642,97.9073,244.9572,80.4743,279.6646,0,U,39160,999,70384,.13291E-3,.665E-5,0
ARIRANG-5 (KOMPSAT-5),2013-042A,2026-07-11T12:11:37.661856,15.04521356,.0005566,97.6218,18.8673,67.9924,292.1893,0,U,39227,999,70751,.5222E-4,.671E-5,0
SKYSAT-A,2013-066C,2026-07-11T01:34:31.492128,15.13102101,.0020122,97.3805,240.7017,228.3568,131.5941,0,U,39418,999,69209,.96068E-4,.1644E-4,0
DUBAISAT-2,2013-066D,2026-07-11T12:27:15.818976,15.10358275,.0009772,97.4572,182.0290,316.8590,43.1873,0,U,39419,999,69006,.14569E-3,.233E-4,0
GPM-CORE,2014-009C,2026-07-11T11:39:52.134048,15.45015581,.001103,64.9698,226.7178,260.8375,99.1518,0,U,39574,999,70156,.80211E-4,.3551E-4,0
SENTINEL-1A,2014-016A,2026-07-11T12:06:39.049632,14.59200564,.0001447,98.1786,199.6823,85.3804,274.7561,0,U,39634,999,65356,.53758E-4,.208E-5,0
KAZEOSAT 1,2014-024A,2026-07-11T12:21:06.879744,14.42037371,.000127,98.3200,264.3558,81.5069,278.6264,0,U,39731,999,64206,.11581E-3,.337E-5,0
ALOS-2,2014-029A,2026-07-11T01:56:55.564224,14.79474805,.0001625,97.9222,288.9034,93.1254,267.0143,0,U,39766,999,65511,.62362E-4,.414E-5,0
KAZEOSAT 2,2014-033A,2026-07-11T13:07:31.679616,14.85496137,.0007188,97.5405,30.8711,233.6993,126.3560,0,U,40010,999,65257,-.91511E-5,-.129E-5,0
